NORAD_CAT_ID,OBJECT_NAME,OBJECT_TYPE,EPOCH,MEAN_MOTION,ECCENTRICITY,INCLINATION,RA_OF_ASC_NODE,ARG_OF_PERICENTER,MEAN_ANOMALY,BSTAR,MEAN_MOTION_DOT,MEAN_MOTION_DDOT,TLE_LINE0,TLE_LINE1,TLE_LINE2,SEMIMAJOR_AXIS,PERIOD,APOGEE,PERIGEE,DECAYED
51965.0,STARLINK-3696,PAYLOAD,2022-08-31 22:00:00,15.08835741,0.0001567,53.2192,41.1775,55.3125,194.7898,-0.00013775,-2.479e-05,0.0,0 STARLINK-3696,1 51965U 22025K   22243.91667824 -.00002479  00000-0 -13775-3 0  9993,2 51965  53.2192  41.1775 0001567  55.3125 194.7898 15.08835741 28182,6917.893,95.438,540.842,538.674,0.0
51965.0,STARLINK-3696,PAYLOAD,2022-09-01 14:00:01,15.08847081,0.0001426,53.2194,38.1842,62.1415,211.1898,-0.0014422,-0.00023171,0.0,0 STARLINK-3696,1 51965U 22025K   22244.58335648 -.00023171  00000-0 -14422-2 0  9994,2 51965  53.2194  38.1842 0001426  62.1415 211.1898 15.08847081  1306,6917.859,95.437,540.71,538.737,0.0
51965.0,STARLINK-3696,PAYLOAD,2022-09-01 22:00:00,15.08823196,0.0001496999999999,53.2189,36.6889,54.9867,229.8767,0.0021335,0.00033814,0.0,0 STARLINK-3696,1 51965U 22025K   22244.91667824  .00033814  00000-0  21335-2 0  9999,2 51965  53.2189  36.6889 0001497  54.9867 229.8767 15.08823196  1304,6917.932,95.439,540.832,538.761,0.0
51965.0,STARLINK-3696,PAYLOAD,2022-09-02 08:00:01,15.08820967,0.0001355,53.2188,34.8167,65.7049,323.6541,0.0030785,0.00049022,0.0,0 STARLINK-3696,1 51965U 22025K   22245.33334491  .00049022  00000-0  30785-2 0  9994,2 51965  53.2188  34.8167 0001355  65.7049 323.6541 15.08820967 28391,6917.939,95.439,540.741,538.866,0.0
51965.0,STARLINK-3696,PAYLOAD,2022-09-02 14:00:01,15.08870013,0.0001395999999999,53.219,33.6957,61.6588,246.3874,-0.003058,-0.00048667,0.0,0 STARLINK-3696,1 51965U 22025K   22245.58334491 -.00048667  00000-0 -30580-2 0  9990,2 51965  53.2190  33.6957 0001396  61.6588 246.3874 15.08870013  1305,6917.7890000000025,95.436,540.619,538.688,0.0
51965.0,STARLINK-3696,PAYLOAD,2022-09-02 22:00:01,15.08822417,0.0001411,53.2185,32.2001,52.7928,266.9283,0.00070899,0.00011008,0.0,0 STARLINK-3696,1 51965U 22025K   22245.91668981  .00011008  00000-0  70899-3 0  9996,2 51965  53.2185  32.2001 0001411  52.7928 266.9283 15.08822417  1308,6917.934,95.439,540.775,538.823,0.0
51965.0,STARLINK-3696,PAYLOAD,2022-09-03 00:00:00,15.08837691,0.0001376999999999,53.2185,31.8255,53.3259,359.2259,-0.0010845,-0.00017505,0.0,0 STARLINK-3696,1 51965U 22025K   22246.00001157 -.00017505  00000-0 -10845-2 0  9997,2 51965  53.2185  31.8255 0001377  53.3259 359.2259 15.08837691 28497,6917.887,95.438,540.705,538.8,0.0
51965.0,STARLINK-3696,PAYLOAD,2022-09-03 14:00:01,15.08851028,0.0001375,53.2186,29.207,58.1515,284.6714,-0.001395,-0.00022427,0.0,0 STARLINK-3696,1 51965U 22025K   22246.58334491 -.00022427  00000-0 -13950-2 0  9999,2 51965  53.2186  29.2070 0001375  58.1515 284.6714 15.08851028  1308,6917.847,95.437,540.663,538.76,0.0
51965.0,STARLINK-3696,PAYLOAD,2022-09-03 22:00:00,15.08849446,0.0001449,53.2183,27.7112,51.0105,303.4136,0.00033041,4.976e-05,0.0,0 STARLINK-3696,1 51965U 22025K   22246.91667824  .00004976  00000-0  33041-3 0  9996,2 51965  53.2183  27.7112 0001449  51.0105 303.4136 15.08849446  1303,6917.852,95.437,540.719,538.714,0.0
51965.0,STARLINK-3696,PAYLOAD,2022-09-04 08:00:01,15.08820644,0.0001424,53.2185,25.8388,62.7234,36.2222,0.0028293,0.00045004,0.0,0 STARLINK-3696,1 51965U 22025K   22247.33334491  .00045004  00000-0  28293-2 0  9993,2 51965  53.2185  25.8388 0001424  62.7234  36.2222 15.08820644 28703,6917.94,95.439,540.79,538.819,0.0
51965.0,STARLINK-3696,PAYLOAD,2022-09-04 14:00:01,15.08861734,0.0001514,53.2186,24.7179,57.2715,320.4239,-0.0019692,-0.0003151,0.0,0 STARLINK-3696,1 51965U 22025K   22247.58335648 -.00031510  00000-0 -19692-2 0  9997,2 51965  53.2186  24.7179 0001514  57.2715 320.4239 15.08861734  1301,6917.814,95.436,540.726,538.632,0.0
51965.0,STARLINK-3696,PAYLOAD,2022-09-04 20:00:01,15.08838976,0.0001558,53.2186,23.5965,50.6638,245.6864,0.00061362,9.491e-05,0.0,0 STARLINK-3696,1 51965U 22025K   22247.83334491  .00009491  00000-0  61362-3 0  9993,2 51965  53.2186  23.5965 0001558  50.6638 245.6864 15.08838976 28774,6917.884,95.438,540.826,538.6709999999998,0.0
51965.0,STARLINK-3696,PAYLOAD,2022-09-05 14:00:01,15.08853359,0.000158,53.2189,20.2288,54.5008,357.9666,-0.0014405999999999,-0.0002315,0.0,0 STARLINK-3696,1 51965U 22025K   22248.58334491 -.00023150  00000-0 -14406-2 0  9992,2 51965  53.2189  20.2288 0001580  54.5008 357.9666 15.08853359  1307,6917.84,95.437,540.798,538.612,0.0
51965.0,STARLINK-3696,PAYLOAD,2022-09-05 22:00:00,15.0885437,0.0001625,53.2189,18.7327,49.5287,14.5335,-0.0038005,-0.00060291,0.0,0 STARLINK-3696,1 51965U 22025K   22248.91667824 -.00060291  00000-0 -38005-2 0  9996,2 51965  53.2189  18.7327 0001625  49.5287  14.5335 15.08854370  1309,6917.8359999999975,95.437,540.826,538.577,0.0
51965.0,STARLINK-3696,PAYLOAD,2022-09-06 12:00:00,15.0881717,0.000164,53.2195,16.1134,57.8324,296.4691,-0.00091976,-0.00014887,0.0,0 STARLINK-3696,1 51965U 22025K   22249.50001157 -.00014887  00000-0 -91976-3 0  9990,2 51965  53.2195  16.1134 0001640  57.8324 296.4691 15.08817170 29027,6917.95,95.439,540.95,538.681,0.0
51965.0,STARLINK-3696,PAYLOAD,2022-09-06 14:00:01,15.08814384,0.0001698,53.2194,15.7398,55.6055,31.5872,-0.00078407,-0.00012736,0.0,0 STARLINK-3696,1 51965U 22025K   22249.58334491 -.00012736  00000-0 -78407-3 0  9993,2 51965  53.2194  15.7398 0001698  55.6055  31.5872 15.08814384  1307,6917.959,95.439,540.998,538.649,0.0
51965.0,STARLINK-3696,PAYLOAD,2022-09-06 22:00:00,15.08820513,0.0001714,53.2193,14.2437,51.6009,47.146,0.00034344,5.179e-05,0.0,0 STARLINK-3696,1 51965U 22025K   22249.91667824  .00005179  00000-0  34344-3 0  9992,2 51965  53.2193  14.2437 0001714  51.6009  47.1460 15.08820513  1305,6917.94,95.439,540.991,538.619,0.0
51965.0,STARLINK-3696,PAYLOAD,2022-09-07 06:00:00,15.0880889,0.0001556,53.2197,12.7458,58.9118,51.4186,0.00352,0.00056131,0.0,0 STARLINK-3696,1 51965U 22025K   22250.25001157  .00056131  00000-0  35200-2 0  9997,2 51965  53.2197  12.7458 0001556  58.9118  51.4186 15.08808890 29149,6917.975,95.44,540.9169999999998,538.764,0.0
51965.0,STARLINK-3696,PAYLOAD,2022-09-07 14:00:01,15.088489,0.0001679,53.2198,11.2511,54.2831,67.6234,-0.00093333,-0.00015115,0.0,0 STARLINK-3696,1 51965U 22025K   22250.58334491 -.00015115  00000-0 -93333-3 0  9994,2 51965  53.2198  11.2511 0001679  54.2831  67.6234 15.08848900  1308,6917.853,95.437,540.88,538.557,0.0
51965.0,STARLINK-3696,PAYLOAD,2022-09-07 22:00:00,15.088548499999998,0.0001629,53.2196,9.7546,49.9671,83.535,-0.0024854,-0.00039642,0.0,0 STARLINK-3696,1 51965U 22025K   22250.91667824 -.00039642  00000-0 -24854-2 0  9992,2 51965  53.2196   9.7546 0001629  49.9671  83.5350 15.08854850  1301,6917.835,95.437,540.827,538.573,0.0
51965.0,STARLINK-3696,PAYLOAD,2022-09-08 14:00:01,15.0885307,0.0001594,53.2199,6.7623,52.3808,104.3119,-0.0012269,-0.00019768,0.0,0 STARLINK-3696,1 51965U 22025K   22251.58334491 -.00019768  00000-0 -12269-2 0  9991,2 51965  53.2199   6.7623 0001594  52.3808 104.3119 15.08853070  1306,6917.84,95.437,540.808,538.6030000000002,0.0
51965.0,STARLINK-3696,PAYLOAD,2022-09-08 22:00:00,15.08861387,0.0001626999999999,53.2196,5.2657,50.708,117.5959,-0.002074,-0.00033164,0.0,0 STARLINK-3696,1 51965U 22025K   22251.91667824 -.00033164  00000-0 -20740-2 0  9996,2 51965  53.2196   5.2657 0001627  50.7080 117.5959 15.08861387  1303,6917.815,95.436,540.806,538.554,0.0
51965.0,STARLINK-3696,PAYLOAD,2022-09-09 00:00:02,15.08854927,0.0001571999999999,53.2198,4.8911,53.0506,208.2206,-0.0017546,-0.00028115,0.0,0 STARLINK-3696,1 51965U 22025K   22252.00002315 -.00028115  00000-0 -17546-2 0  9995,2 51965  53.2198   4.8911 0001572  53.0506 208.2206 15.08854927 29407,6917.835,95.437,540.7869999999998,538.612,0.0
51965.0,STARLINK-3696,PAYLOAD,2022-09-09 14:00:01,15.08828752,0.0001592,53.2197,2.2738,51.8326,139.6652,-0.00020715,-3.582e-05,0.0,0 STARLINK-3696,1 51965U 22025K   22252.58334491 -.00003582  00000-0 -20715-3 0  9995,2 51965  53.2197   2.2738 0001592  51.8326 139.6652 15.08828752  1301,6917.915,95.438,540.881,538.678,0.0
51965.0,STARLINK-3696,PAYLOAD,2022-09-09 22:00:00,15.08851704,0.0001621999999999,53.2191,0.7765,51.2176,151.8567,-0.0037555999999999,-0.00059583,0.0,0 STARLINK-3696,1 51965U 22025K   22252.91667824 -.00059583  00000-0 -37556-2 0  9993,2 51965  53.2191   0.7765 0001622  51.2176 151.8567 15.08851704  1303,6917.845,95.437,540.832,538.5880000000002,0.0
51965.0,STARLINK-3696,PAYLOAD,2022-09-10 06:00:02,15.08811074,0.0001551,53.2191,359.279,59.7281,155.003,0.0027529,0.00043762,0.0,0 STARLINK-3696,1 51965U 22025K   22253.25002315  .00043762  00000-0  27529-2 0  9998,2 51965  53.2191 359.2790 0001551  59.7281 155.0030 15.08811074 29592,6917.969,95.439,540.9069999999998,538.761,0.0
51965.0,STARLINK-3696,PAYLOAD,2022-09-10 14:00:01,15.08834082,0.0001679,53.2193,357.7854,53.3053,172.94299999999996,-0.00014757,-2.635e-05,0.0,0 STARLINK-3696,1 51965U 22025K   22253.58334491 -.00002635  00000-0 -14757-3 0  9993,2 51965  53.2193 357.7854 0001679  53.3053 172.9430 15.08834082  1301,6917.898,95.438,540.925,538.602,0.0
51965.0,STARLINK-3696,PAYLOAD,2022-09-10 22:00:00,15.0885232,0.0001587,53.219,356.288,50.3888,187.4443,-0.0034899,-0.00055421,0.0,0 STARLINK-3696,1 51965U 22025K   22253.91667824 -.00055421  00000-0 -34899-2 0  9998,2 51965  53.2190 356.2880 0001587  50.3888 187.4443 15.08852320 29694,6917.843000000003,95.437,540.806,538.61,0.0
51965.0,STARLINK-3696,PAYLOAD,2022-09-11 06:00:00,15.08821025,0.0001491,53.2188,354.7904,56.3809,193.0505,0.0026753,0.00042524,0.0,0 STARLINK-3696,1 51965U 22025K   22254.25001157  .00042524  00000-0  26753-2 0  9995,2 51965  53.2188 354.7904 0001491  56.3809 193.0505 15.08821025 29740,6917.938,95.439,540.835,538.7719999999998,0.0
